AJISAI (EGS)
1 16908U 86061A   26105.56684758 -.00000080  00000+0  12423-3 0  9991
2 16908  50.0115 339.9531 0011395  21.7774   4.8327 12.44515789472595
SL-14 R/B
1 16496U 86006B   26105.60190619  .00000473  00000+0  47241-4 0  9997
2 16496  82.5281 224.9949 0077284 149.4024 211.1736 14.86879313154691
COSMOS 1743
1 16719U 86034A   26105.26524595  .00024804  00000+0  28523-3 0  9997
2 16719  82.5312  35.3509 0006964 127.5074 232.6818 15.61829837185951
SL-14 R/B
1 16792U 86046B   26105.58273316  .00000263  00000+0  27330-4 0  9997
2 16792  82.4835  45.3199 0024654 105.0241 255.3706 14.85627318131886
SL-14 R/B
1 16882U 86055B   26105.45238859  .00000251  00000+0  26075-4 0  9998
2 16882  82.5173  92.1072 0018118 206.1862 269.1112 14.85675872124820
SL-14 R/B
1 17567U 87024B   26105.60271121  .00000257  00000+0  26386-4 0  9993
2 17567  82.5283  58.0631 0019327 134.9319 225.3470 14.86168226 93617
COSMOS 1833
1 17589U 87027A   26105.60029397 -.00000316  00000+0 -14347-3 0  9997
2 17589  70.9161 248.4316 0022583 158.1742 202.0347 14.13038274 15537
SL-16 R/B
1 17590U 87027B   26105.60792023 -.00000225  00000+0 -87623-4 0  9999
2 17590  71.0034 198.6974 0003091  47.3369 312.8015 14.17169006 20577
SL-14 R/B
1 17912U 87038B   26105.48186032  .00000235  00000+0  24395-4 0  9998
2 17912  82.4988 262.1360 0020280  46.3080 313.9812 14.85403745 84699
COSMOS 1844
1 17973U 87041A   26105.31309622 -.00000118  00000+0 -36022-4 0  9995
2 17973  70.9001 316.9298 0032375 323.9591  35.9348 14.14564777  8765
SL-14 R/B
1 18153U 87055B   26105.04814612  .00000247  00000+0  25661-4 0  9999
2 18153  82.4977 314.7627 0019176 252.2166 107.6958 14.85662826 75337
COSMOS 1867
1 18187U 87060A   26105.60753889 -.00000066  00000+0  12954-4 0  9993
2 18187  65.0109 203.3142 0015187 280.6081  79.3292 14.31508657 25223
SL-14 R/B
1 18749U 88001B   26105.18073128  .00000215  00000+0  21984-4 0  9995
2 18749  82.5140 161.0487 0019515 115.8348 244.4884 14.85564742 47448
COSMOS 1933
1 18958U 88020A   26105.37072672  .00002372  00000+0  11406-3 0  9995
2 18958  82.5151 214.6130 0005393  79.8263 280.3579 15.18331550 55799
SL-3 R/B
1 19046U 88032B   26105.59537163  .00002536  00000+0  11881-3 0  9991
2 19046  97.5228  88.7386 0027633 104.4058 256.0247 15.20308606 57715
SL-16 R/B
1 19120U 88039B   26105.40943117 -.00000007  00000+0  19272-4 0  9996
2 19120  71.0168 350.9058 0024030 282.3157  77.5278 14.19622700963595
COSMOS 1953
1 19210U 88050A   26105.47509499  .00003651  00000+0  12795-3 0  9996
2 19210  82.5047 121.2276 0010646   5.2931 354.8419 15.29086858 43406
