[{"OBJECT_NAME":"SL-14 R/B","OBJECT_ID":"1986-006B","EPOCH":"2026-04-15T14:26:44.694816","MEAN_MOTION":14.86879313,"ECCENTRICITY":0.00772844,"INCLINATION":82.5281,"RA_OF_ASC_NODE":224.9949,"ARG_OF_PERICENTER":149.4024,"MEAN_ANOMALY":211.1736,"EPHEMERIS_TYPE":0,"CLASSIFICATION_TYPE":"U","NORAD_CAT_ID":16496,"ELEMENT_SET_NO":999,"REV_AT_EPOCH":15469,"BSTAR":4.7240572e-5,"MEAN_MOTION_DOT":4.73e-6,"MEAN_MOTION_DDOT":0},{"OBJECT_NAME":"COSMOS 1743","OBJECT_ID":"1986-034A","EPOCH":"2026-04-15T06:21:57.250080","MEAN_MOTION":15.61829837,"ECCENTRICITY":0.0006964,"INCLINATION":82.5312,"RA_OF_ASC_NODE":35.3509,"ARG_OF_PERICENTER":127.5074,"MEAN_ANOMALY":232.6818,"EPHEMERIS_TYPE":0,"CLASSIFICATION_TYPE":"U","NORAD_CAT_ID":16719,"ELEMENT_SET_NO":999,"REV_AT_EPOCH":18595,"BSTAR":0.00028523,"MEAN_MOTION_DOT":0.00024804,"MEAN_MOTION_DDOT":0},{"OBJECT_NAME":"SL-14 R/B","OBJECT_ID":"1986-046B","EPOCH":"2026-04-15T13:59:08.145024","MEAN_MOTION":14.85627318,"ECCENTRICITY":0.00246541,"INCLINATION":82.4835,"RA_OF_ASC_NODE":45.3199,"ARG_OF_PERICENTER":105.0241,"MEAN_ANOMALY":255.3706,"EPHEMERIS_TYPE":0,"CLASSIFICATION_TYPE":"U","NORAD_CAT_ID":16792,"ELEMENT_SET_NO":999,"REV_AT_EPOCH":13188,"BSTAR":2.7330322e-5,"MEAN_MOTION_DOT":2.63e-6,"MEAN_MOTION_DDOT":0},{"OBJECT_NAME":"SL-14 R/B","OBJECT_ID":"1986-055B","EPOCH":"2026-04-15T10:51:26.374176","MEAN_MOTION":14.85675872,"ECCENTRICITY":0.00181184,"INCLINATION":82.5173,"RA_OF_ASC_NODE":92.1072,"ARG_OF_PERICENTER":206.1862,"MEAN_ANOMALY":269.1112,"EPHEMERIS_TYPE":0,"CLASSIFICATION_TYPE":"U","NORAD_CAT_ID":16882,"ELEMENT_SET_NO":999,"REV_AT_EPOCH":12482,"BSTAR":2.6075419e-5,"MEAN_MOTION_DOT":2.51e-6,"MEAN_MOTION_DDOT":0},{"OBJECT_NAME":"AJISAI (EGS)","OBJECT_ID":"1986-061A","EPOCH":"2026-04-15T13:36:15.630912","MEAN_MOTION":12.44515789,"ECCENTRICITY":0.00113954,"INCLINATION":50.0115,"RA_OF_ASC_NODE":339.9531,"ARG_OF_PERICENTER":21.7774,"MEAN_ANOMALY":4.8327,"EPHEMERIS_TYPE":0,"CLASSIFICATION_TYPE":"U","NORAD_CAT_ID":16908,"ELEMENT_SET_NO":999,"REV_AT_EPOCH":47259,"BSTAR":0.0001242305,"MEAN_MOTION_DOT":-8.0e-7,"MEAN_MOTION_DDOT":0},{"OBJECT_NAME":"SL-14 R/B","OBJECT_ID":"1987-024B","EPOCH":"2026-04-15T14:27:54.248544","MEAN_MOTION":14.86168226,"ECCENTRICITY":0.00193275,"INCLINATION":82.5283,"RA_OF_ASC_NODE":58.0631,"ARG_OF_PERICENTER":134.9319,"MEAN_ANOMALY":225.347,"EPHEMERIS_TYPE":0,"CLASSIFICATION_TYPE":"U","NORAD_CAT_ID":17567,"ELEMENT_SET_NO":999,"REV_AT_EPOCH":9361,"BSTAR":2.6385836e-5,"MEAN_MOTION_DOT":2.57e-6,"MEAN_MOTION_DDOT":0},{"OBJECT_NAME":"COSMOS 1833","OBJECT_ID":"1987-027A","EPOCH":"2026-04-15T14:24:25.399008","MEAN_MOTION":14.13038274,"ECCENTRICITY":0.0022583,"INCLINATION":70.9161,"RA_OF_ASC_NODE":248.4316,"ARG_OF_PERICENTER":158.1742,"MEAN_ANOMALY":202.0347,"EPHEMERIS_TYPE":0,"CLASSIFICATION_TYPE":"U","NORAD_CAT_ID":17589,"ELEMENT_SET_NO":999,"REV_AT_EPOCH":1553,"BSTAR":-0.00014346876,"MEAN_MOTION_DOT":-3.16e-6,"MEAN_MOTION_DDOT":0},{"OBJECT_NAME":"SL-16 R/B","OBJECT_ID":"1987-027B","EPOCH":"2026-04-15T14:35:24.307872","MEAN_MOTION":14.17169006,"ECCENTRICITY":0.00030916,"INCLINATION":71.0034,"RA_OF_ASC_NODE":198.6974,"ARG_OF_PERICENTER":47.3369,"MEAN_ANOMALY":312.8015,"EPHEMERIS_TYPE":0,"CLASSIFICATION_TYPE":"U","NORAD_CAT_ID":17590,"ELEMENT_SET_NO":999,"REV_AT_EPOCH":2057,"BSTAR":-8.7622674e-5,"MEAN_MOTION_DOT":-2.25e-6,"MEAN_MOTION_DDOT":0},{"OBJECT_NAME":"SL-14 R/B","OBJECT_ID":"1987-038B","EPOCH":"2026-04-15T11:33:52.731648","MEAN_MOTION":14.85403745,"ECCENTRICITY":0.002028,"INCLINATION":82.4988,"RA_OF_ASC_NODE":262.136,"ARG_OF_PERICENTER":46.308,"MEAN_ANOMALY":313.9812,"EPHEMERIS_TYPE":0,"CLASSIFICATION_TYPE":"U","NORAD_CAT_ID":17912,"ELEMENT_SET_NO":999,"REV_AT_EPOCH":8469,"BSTAR":2.4394854e-5,"MEAN_MOTION_DOT":2.35e-6,"MEAN_MOTION_DDOT":0},{"OBJECT_NAME":"COSMOS 1844","OBJECT_ID":"1987-041A","EPOCH":"2026-04-15T07:30:51.513408","MEAN_MOTION":14.14564777,"ECCENTRICITY":0.00323757,"INCLINATION":70.9001,"RA_OF_ASC_NODE":316.9298,"ARG_OF_PERICENTER":323.9591,"MEAN_ANOMALY":35.9348,"EPHEMERIS_TYPE":0,"CLASSIFICATION_TYPE":"U","NORAD_CAT_ID":17973,"ELEMENT_SET_NO":999,"REV_AT_EPOCH":876,"BSTAR":-3.6022106e-5,"MEAN_MOTION_DOT":-1.18e-6,"MEAN_MOTION_DDOT":0},{"OBJECT_NAME":"SL-14 R/B","OBJECT_ID":"1987-055B","EPOCH":"2026-04-15T01:09:19.824768","MEAN_MOTION":14.85662826,"ECCENTRICITY":0.00191763,"INCLINATION":82.4977,"RA_OF_ASC_NODE":314.7627,"ARG_OF_PERICENTER":252.2166,"MEAN_ANOMALY":107.6958,"EPHEMERIS_TYPE":0,"CLASSIFICATION_TYPE":"U","NORAD_CAT_ID":18153,"ELEMENT_SET_NO":999,"REV_AT_EPOCH":7533,"BSTAR":2.5660771e-5,"MEAN_MOTION_DOT":2.47e-6,"MEAN_MOTION_DDOT":0},{"OBJECT_NAME":"COSMOS 1867","OBJECT_ID":"1987-060A","EPOCH":"2026-04-15T14:34:51.360096","MEAN_MOTION":14.31508657,"ECCENTRICITY":0.00151876,"INCLINATION":65.0109,"RA_OF_ASC_NODE":203.3142,"ARG_OF_PERICENTER":280.6081,"MEAN_ANOMALY":79.3292,"EPHEMERIS_TYPE":0,"CLASSIFICATION_TYPE":"U","NORAD_CAT_ID":18187,"ELEMENT_SET_NO":999,"REV_AT_EPOCH":2522,"BSTAR":1.2953591e-5,"MEAN_MOTION_DOT":-6.6e-7,"MEAN_MOTION_DDOT":0},{"OBJECT_NAME":"SL-14 R/B","OBJECT_ID":"1988-001B","EPOCH":"2026-04-15T04:20:15.182592","MEAN_MOTION":14.85564742,"ECCENTRICITY":0.00195155,"INCLINATION":82.514,"RA_OF_ASC_NODE":161.0487,"ARG_OF_PERICENTER":115.8348,"MEAN_ANOMALY":244.4884,"EPHEMERIS_TYPE":0,"CLASSIFICATION_TYPE":"U","NORAD_CAT_ID":18749,"ELEMENT_SET_NO":999,"REV_AT_EPOCH":4744,"BSTAR":2.1984087e-5,"MEAN_MOTION_DOT":2.15e-6,"MEAN_MOTION_DDOT":0},{"OBJECT_NAME":"COSMOS 1933","OBJECT_ID":"1988-020A","EPOCH":"2026-04-15T08:53:50.788608","MEAN_MOTION":15.1833155,"ECCENTRICITY":0.00053937,"INCLINATION":82.5151,"RA_OF_ASC_NODE":214.613,"ARG_OF_PERICENTER":79.8263,"MEAN_ANOMALY":280.3579,"EPHEMERIS_TYPE":0,"CLASSIFICATION_TYPE":"U","NORAD_CAT_ID":18958,"ELEMENT_SET_NO":999,"REV_AT_EPOCH":5579,"BSTAR":0.00011406398,"MEAN_MOTION_DOT":2.372e-5,"MEAN_MOTION_DDOT":0},{"OBJECT_NAME":"SL-3 R/B","OBJECT_ID":"1988-032B","EPOCH":"2026-04-15T14:17:20.108832","MEAN_MOTION":15.20308606,"ECCENTRICITY":0.00276332,"INCLINATION":97.5228,"RA_OF_ASC_NODE":88.7386,"ARG_OF_PERICENTER":104.4058,"MEAN_ANOMALY":256.0247,"EPHEMERIS_TYPE":0,"CLASSIFICATION_TYPE":"U","NORAD_CAT_ID":19046,"ELEMENT_SET_NO":999,"REV_AT_EPOCH":5771,"BSTAR":0.00011880872,"MEAN_MOTION_DOT":2.536e-5,"MEAN_MOTION_DDOT":0},{"OBJECT_NAME":"SL-16 R/B","OBJECT_ID":"1988-039B","EPOCH":"2026-04-15T09:49:34.853088","MEAN_MOTION":14.196227,"ECCENTRICITY":0.00240301,"INCLINATION":71.0168,"RA_OF_ASC_NODE":350.9058,"ARG_OF_PERICENTER":282.3157,"MEAN_ANOMALY":77.5278,"EPHEMERIS_TYPE":0,"CLASSIFICATION_TYPE":"U","NORAD_CAT_ID":19120,"ELEMENT_SET_NO":999,"REV_AT_EPOCH":96359,"BSTAR":1.9271585e-5,"MEAN_MOTION_DOT":-7.0e-8,"MEAN_MOTION_DDOT":0},{"OBJECT_NAME":"COSMOS 1953","OBJECT_ID":"1988-050A","EPOCH":"2026-04-15T11:24:08.207136","MEAN_MOTION":15.29086858,"ECCENTRICITY":0.00106464,"INCLINATION":82.5047,"RA_OF_ASC_NODE":121.2276,"ARG_OF_PERICENTER":5.2931,"MEAN_ANOMALY":354.8419,"EPHEMERIS_TYPE":0,"CLASSIFICATION_TYPE":"U","NORAD_CAT_ID":19210,"ELEMENT_SET_NO":999,"REV_AT_EPOCH":4340,"BSTAR":0.00012794966,"MEAN_MOTION_DOT":3.651e-5,"MEAN_MOTION_DDOT":0}]
